COSMOS 2581             
1 62902U 25026A   26068.82116744  .00002320  00000+0  21137-3 0  9992
2 62902  81.9986 175.8565 0010574  32.7244 327.4629 14.94736104 59374
SPIRONE                 
1 66657U 25274H   26068.75112204  .00004139  00000+0  40237-3 0  9999
2 66657  97.7435 359.5247 0011966 353.7886   6.3183 14.93072071 15387
